[{"OBJECT_NAME":"STARLINK-30907","OBJECT_ID":"2023-177B","EPOCH":"2026-03-09T22:00:01.999584","MEAN_MOTION":15.27570349,"ECCENTRICITY":0.00017529,"INCLINATION":43.0009,"RA_OF_ASC_NODE":349.075,"ARG_OF_PERICENTER":268.5333,"MEAN_ANOMALY":138.6096,"EPHEMERIS_TYPE":0,"CLASSIFICATION_TYPE":"U","NORAD_CAT_ID":58352,"ELEMENT_SET_NO":999,"REV_AT_EPOCH":573,"BSTAR":-0.00038850833,"MEAN_MOTION_DOT":-0.00010935,"MEAN_MOTION_DDOT":0},{"OBJECT_NAME":"COSMOS 546","OBJECT_ID":"1973-005A","EPOCH":"2026-03-09T21:40:39.247392","MEAN_MOTION":15.29707303,"ECCENTRICITY":0.00147738,"INCLINATION":50.6327,"RA_OF_ASC_NODE":289.914,"ARG_OF_PERICENTER":261.1516,"MEAN_ANOMALY":98.7778,"EPHEMERIS_TYPE":0,"CLASSIFICATION_TYPE":"U","NORAD_CAT_ID":6350,"ELEMENT_SET_NO":999,"REV_AT_EPOCH":92802,"BSTAR":9.142057e-5,"MEAN_MOTION_DOT":2.316e-5,"MEAN_MOTION_DDOT":0}]
